{
  "type": "FeatureCollection",
  "features": [
    {
      "type": "Feature",
      "properties": {
        "norad_id": 30547,
        "name": "FENGYUN 1C DEB",
        "group": "fengyun-1c-debris",
        "lat": 80.32515050020899,
        "lon": 128.65843200997995,
        "alt_km": 786.4589320541654,
        "timestamp": "2025-12-18T07:01:54.866959+00:00",
        "meta_object_name": "FENGYUN 1C DEB",
        "meta_object_id": "1999-025AKM",
        "meta_epoch": "2025-12-17T20:41:10.726080",
        "meta_mean_motion": 14.37759449,
        "meta_eccentricity": 0.00953541,
        "meta_inclination": 98.9019,
        "meta_ra_of_asc_node": 195.0427,
        "meta_arg_of_pericenter": 202.2326,
        "meta_mean_anomaly": 175.0775,
        "meta_ephemeris_type": 0,
        "meta_classification_type": "U",
        "meta_norad_cat_id": 30547,
        "meta_element_set_no": 999,
        "meta_rev_at_epoch": 98796,
        "meta_bstar": 0.00022527959,
        "meta_mean_motion_dot": 6.65e-06,
        "meta_mean_motion_ddot": 0,
        "tle_line1": "1 30547U 99025AKM 25351.86192970  .00000665  00000+0  22528-3 0  9990",
        "tle_line2": "2 30547  98.9019 195.0427 0095354 202.2326 175.0775 14.37759449987962"
      },
      "geometry": {
        "type": "Point",
        "coordinates": [
          128.65843200997995,
          80.32515050020899
        ]
      }
    },
    {
      "type": "Feature",
      "properties": {
        "norad_id": 30548,
        "name": "FENGYUN 1C DEB",
        "group": "fengyun-1c-debris",
        "lat": 52.26783488954043,
        "lon": 83.08938289228304,
        "alt_km": 844.776717360417,
        "timestamp": "2025-12-18T07:01:54.866970+00:00",
        "meta_object_name": "FENGYUN 1C DEB",
        "meta_object_id": "1999-025AKN",
        "meta_epoch": "2025-12-16T12:56:46.154976",
        "meta_mean_motion": 14.26917122,
        "meta_eccentricity": 0.00683453,
        "meta_inclination": 99.6823,
        "meta_ra_of_asc_node": 248.4044,
        "meta_arg_of_pericenter": 325.016,
        "meta_mean_anomaly": 158.3656,
        "meta_ephemeris_type": 0,
        "meta_classification_type": "U",
        "meta_norad_cat_id": 30548,
        "meta_element_set_no": 999,
        "meta_rev_at_epoch": 14149,
        "meta_bstar": 0.0014869051,
        "meta_mean_motion_dot": 3.651e-05,
        "meta_mean_motion_ddot": 0,
        "tle_line1": "1 30548U 99025AKN 25350.53942309  .00003651  00000+0  14869-2 0  9999",
        "tle_line2": "2 30548  99.6823 248.4044 0068345 325.0160 158.3656 14.26917122141496"
      },
      "geometry": {
        "type": "Point",
        "coordinates": [
          83.08938289228304,
          52.26783488954043
        ]
      }
    },
    {
      "type": "Feature",
      "properties": {
        "norad_id": 30549,
        "name": "FENGYUN 1C DEB",
        "group": "fengyun-1c-debris",
        "lat": 67.90040068208475,
        "lon": -46.10088492725533,
        "alt_km": 1026.5676971782432,
        "timestamp": "2025-12-18T07:01:54.866980+00:00",
        "meta_object_name": "FENGYUN 1C DEB",
        "meta_object_id": "1999-025AKP",
        "meta_epoch": "2025-12-17T13:18:42.414912",
        "meta_mean_motion": 13.9874791,
        "meta_eccentricity": 0.02883708,
        "meta_inclination": 98.4837,
        "meta_ra_of_asc_node": 111.6485,
        "meta_arg_of_pericenter": 243.8352,
        "meta_mean_anomaly": 113.2894,
        "meta_ephemeris_type": 0,
        "meta_classification_type": "U",
        "meta_norad_cat_id": 30549,
        "meta_element_set_no": 999,
        "meta_rev_at_epoch": 95361,
        "meta_bstar": 0.0019185983,
        "meta_mean_motion_dot": 3.901e-05,
        "meta_mean_motion_ddot": 0,
        "tle_line1": "1 30549U 99025AKP 25351.55465758  .00003901  00000+0  19186-2 0  9996",
        "tle_line2": "2 30549  98.4837 111.6485 0288370 243.8352 113.2894 13.98747910953614"
      },
      "geometry": {
        "type": "Point",
        "coordinates": [
          -46.10088492725533,
          67.90040068208475
        ]
      }
    },
    {
      "type": "Feature",
      "properties": {
        "norad_id": 30550,
        "name": "FENGYUN 1C DEB",
        "group": "fengyun-1c-debris",
        "lat": -12.323998136336623,
        "lon": -110.45011329997733,
        "alt_km": 848.9116473641761,
        "timestamp": "2025-12-18T07:01:54.866990+00:00",
        "meta_object_name": "FENGYUN 1C DEB",
        "meta_object_id": "1999-025AKQ",
        "meta_epoch": "2025-12-17T11:26:21.220800",
        "meta_mean_motion": 14.02434461,
        "meta_eccentricity": 0.01320906,
        "meta_inclination": 99.0524,
        "meta_ra_of_asc_node": 246.7428,
        "meta_arg_of_pericenter": 284.361,
        "meta_mean_anomaly": 262.5376,
        "meta_ephemeris_type": 0,
        "meta_classification_type": "U",
        "meta_norad_cat_id": 30550,
        "meta_element_set_no": 999,
        "meta_rev_at_epoch": 95461,
        "meta_bstar": 0.0020414039,
        "meta_mean_motion_dot": 3.343e-05,
        "meta_mean_motion_ddot": 0,
        "tle_line1": "1 30550U 99025AKQ 25351.47663450  .00003343  00000+0  20414-2 0  9994",
        "tle_line2": "2 30550  99.0524 246.7428 0132090 284.3610 262.5376 14.02434461954611"
      },
      "geometry": {
        "type": "Point",
        "coordinates": [
          -110.45011329997733,
          -12.323998136336623
        ]
      }
    },
    {
      "type": "Feature",
      "properties": {
        "norad_id": 30552,
        "name": "FENGYUN 1C DEB",
        "group": "fengyun-1c-debris",
        "lat": -37.43200041864294,
        "lon": 131.1095022427352,
        "alt_km": 715.2751292893117,
        "timestamp": "2025-12-18T07:01:54.867001+00:00",
        "meta_object_name": "FENGYUN 1C DEB",
        "meta_object_id": "1999-025AKS",
        "meta_epoch": "2025-12-17T08:05:53.746368",
        "meta_mean_motion": 14.5488294,
        "meta_eccentricity": 0.00150487,
        "meta_inclination": 98.8337,
        "meta_ra_of_asc_node": 123.2639,
        "meta_arg_of_pericenter": 239.0844,
        "meta_mean_anomaly": 120.8873,
        "meta_ephemeris_type": 0,
        "meta_classification_type": "U",
        "meta_norad_cat_id": 30552,
        "meta_element_set_no": 999,
        "meta_rev_at_epoch": 97719,
        "meta_bstar": 0.0022919743,
        "meta_mean_motion_dot": 9.822e-05,
        "meta_mean_motion_ddot": 0,
        "tle_line1": "1 30552U 99025AKS 25351.33742762  .00009822  00000+0  22920-2 0  9997",
        "tle_line2": "2 30552  98.8337 123.2639 0015048 239.0844 120.8873 14.54882940977196"
      },
      "geometry": {
        "type": "Point",
        "coordinates": [
          131.1095022427352,
          -37.43200041864294
        ]
      }
    },
    {
      "type": "Feature",
      "properties": {
        "norad_id": 30553,
        "name": "FENGYUN 1C DEB",
        "group": "fengyun-1c-debris",
        "lat": 8.64612083008007,
        "lon": 86.46198946824967,
        "alt_km": 663.2090511122897,
        "timestamp": "2025-12-18T07:01:54.867011+00:00",
        "meta_object_name": "FENGYUN 1C DEB",
        "meta_object_id": "1999-025AKT",
        "meta_epoch": "2025-12-17T04:53:53.884896",
        "meta_mean_motion": 14.72455621,
        "meta_eccentricity": 0.00201924,
        "meta_inclination": 99.1298,
        "meta_ra_of_asc_node": 86.6413,
        "meta_arg_of_pericenter": 138.1456,
        "meta_mean_anomaly": 222.1296,
        "meta_ephemeris_type": 0,
        "meta_classification_type": "U",
        "meta_norad_cat_id": 30553,
        "meta_element_set_no": 999,
        "meta_rev_at_epoch": 98539,
        "meta_bstar": 0.0026339989,
        "meta_mean_motion_dot": 0.00016737,
        "meta_mean_motion_ddot": 0,
        "tle_line1": "1 30553U 99025AKT 25351.20409589  .00016737  00000+0  26340-2 0  9994",
        "tle_line2": "2 30553  99.1298  86.6413 0020192 138.1456 222.1296 14.72455621985391"
      },
      "geometry": {
        "type": "Point",
        "coordinates": [
          86.46198946824967,
          8.64612083008007
        ]
      }
    },
    {
      "type": "Feature",
      "properties": {
        "norad_id": 30555,
        "name": "FENGYUN 1C DEB",
        "group": "fengyun-1c-debris",
        "lat": -25.505246162662438,
        "lon": -138.44766949939674,
        "alt_km": 808.0437614733492,
        "timestamp": "2025-12-18T07:01:54.867021+00:00",
        "meta_object_name": "FENGYUN 1C DEB",
        "meta_object_id": "1999-025AKV",
        "meta_epoch": "2025-12-17T17:06:07.369920",
        "meta_mean_motion": 14.20833924,
        "meta_eccentricity": 0.00428242,
        "meta_inclination": 98.7575,
        "meta_ra_of_asc_node": 45.1947,
        "meta_arg_of_pericenter": 257.023,
        "meta_mean_anomaly": 221.9342,
        "meta_ephemeris_type": 0,
        "meta_classification_type": "U",
        "meta_norad_cat_id": 30555,
        "meta_element_set_no": 999,
        "meta_rev_at_epoch": 97006,
        "meta_bstar": 0.0010555521,
        "meta_mean_motion_dot": 2.258e-05,
        "meta_mean_motion_ddot": 0,
        "tle_line1": "1 30555U 99025AKV 25351.71258530  .00002258  00000+0  10556-2 0  9995",
        "tle_line2": "2 30555  98.7575  45.1947 0042824 257.0230 221.9342 14.20833924970061"
      },
      "geometry": {
        "type": "Point",
        "coordinates": [
          -138.44766949939674,
          -25.505246162662438
        ]
      }
    }
  ]
}